OBJECT_NAME,OBJECT_ID,EPOCH,MEAN_MOTION,ECCENTRICITY,INCLINATION,RA_OF_ASC_NODE,ARG_OF_PERICENTER,MEAN_ANOMALY,EPHEMERIS_TYPE,CLASSIFICATION_TYPE,NORAD_CAT_ID,ELEMENT_SET_NO,REV_AT_EPOCH,BSTAR,MEAN_MOTION_DOT,MEAN_MOTION_DDOT
STARLINK-2142,2021-017L,2024-07-11T13:28:32.419776,15.06401397,.0001446,53.0571,327.8757,83.7568,276.3586,0,U,47732,999,18756,.43885E-3,.6261E-4,0
STARLINK-2143,2021-017M,2024-07-10T21:54:59.620320,15.06391497,.0000804,53.0535,65.5453,76.3001,283.8078,0,U,47733,999,18618,-.82007E-4,-.1502E-4,0
STARLINK-2144,2021-017N,2024-07-10T23:58:23.940480,15.06393150,.0001379,53.0537,55.1562,86.6121,273.5025,0,U,47734,999,18630,-.44682E-4,-.947E-5,0
STARLINK-2146,2021-017P,2024-07-11T13:05:57.059520,15.06409409,.000127,53.0558,337.8686,81.4325,278.6808,0,U,47735,999,18741,.72611E-3,.10553E-3,0
STARLINK-2147,2021-017Q,2024-07-11T13:31:49.200096,15.06397413,.0001618,53.0564,42.6169,74.3911,285.7257,0,U,47736,999,18656,.13312E-3,.1702E-4,0
STARLINK-2148,2021-017R,2024-07-11T14:00:01.000224,15.89096271,.0005428,53.0408,142.3442,97.4703,151.7622,0,U,47737,999,597,.11727E-2,.357474E-2,0
STARLINK-2150,2021-017T,2024-07-11T15:01:22.759104,15.06407320,.0001465,53.0541,67.3399,91.8034,268.3123,0,U,47739,999,18622,.76294E-3,.11103E-3,0
STARLINK-2152,2021-017U,2024-07-11T00:14:19.255776,15.06393506,.0000849,53.0536,55.1071,75.3458,284.7625,0,U,47740,999,18633,-.45453E-4,-.958E-5,0
STARLINK-2156,2021-017W,2024-07-11T13:37:07.169376,15.06400032,.0001278,53.0553,42.6053,95.7145,264.3990,0,U,47742,999,18656,.44856E-3,.6406E-4,0
STARLINK-2157,2021-017X,2024-07-10T23:54:25.131744,15.06394935,.0002062,53.0565,45.1628,112.1553,247.9655,0,U,47743,999,18645,-.11329E-3,-.1969E-4,0
STARLINK-2159,2021-017Z,2024-07-11T14:23:34.206144,15.06395291,.0001393,53.0539,52.4584,83.1929,276.9218,0,U,47745,999,18637,.22234E-3,.3031E-4,0
STARLINK-2160,2021-017AA,2024-07-11T14:12:56.802240,15.06400456,.0001417,53.0545,52.4918,81.6600,278.4549,0,U,47746,999,18636,.51095E-3,.7337E-4,0
STARLINK-2161,2021-017AB,2024-07-10T23:49:06.905856,15.06383798,.0001383,53.0545,45.1842,92.2396,267.8751,0,U,47747,999,18645,.19721E-3,.2656E-4,0
STARLINK-2162,2021-017AC,2024-07-10T23:38:29.378400,15.06422540,.0001554,53.0540,45.2187,80.0972,280.0192,0,U,47748,999,18642,.10062E-2,.14747E-3,0
STARLINK-2163,2021-017AD,2024-07-11T14:19:34.806432,15.06395116,.0001541,53.0534,42.4698,89.6615,270.4551,0,U,47749,999,18651,-.5874E-4,-.1156E-4,0
STARLINK-2164,2021-017AE,2024-07-11T13:47:43.848384,15.06393883,.0001517,53.0541,42.5700,106.3705,253.7451,0,U,47750,999,18651,.86272E-3,.1259E-3,0
STARLINK-2168,2021-017AF,2024-07-11T14:00:01.000224,15.80187937,.0000735,53.0528,1.1447,51.8768,282.8351,0,U,47751,999,602,.19408E-2,.387761E-2,0
STARLINK-2169,2021-017AG,2024-07-11T13:44:25.368576,15.06405924,.0001482,53.0562,47.5824,98.0291,262.0866,0,U,47752,999,18649,.51323E-3,.7372E-4,0
STARLINK-2170,2021-017AH,2024-07-11T00:24:56.577600,15.06390769,.0001236,53.0552,55.0733,103.7534,256.3593,0,U,47753,999,18633,-.62347E-4,-.121E-4,0
STARLINK-2171,2021-017AJ,2024-07-11T10:51:15.045408,15.06394898,.0001341,53.0541,53.1219,84.2531,275.8611,0,U,47754,999,18636,.22812E-3,.3118E-4,0
STARLINK-2174,2021-017AL,2024-07-11T13:57:01.543104,15.06398026,.0001526,53.0543,52.5410,75.1203,284.9955,0,U,47756,999,18642,.82133E-3,.11973E-3,0
STARLINK-2175,2021-017AM,2024-07-10T21:40:24.066912,15.06394488,.0001481,53.0553,55.5827,118.3868,241.7270,0,U,47757,999,18564,-.34453E-4,-.795E-5,0
STARLINK-2178,2021-017AQ,2024-07-10T22:26:50.764992,15.06398640,.0001502,53.0544,65.4473,91.9279,268.1882,0,U,47760,999,18616,.38219E-4,.288E-5,0
STARLINK-2179,2021-017AR,2024-07-11T00:46:10.174080,15.06393318,.0001745,53.0545,55.0097,84.4311,275.6877,0,U,47761,999,18629,-.87719E-4,-.1588E-4,0
STARLINK-2180,2021-017AS,2024-07-10T22:12:54.590112,15.06392909,.0001388,53.0542,70.4980,85.6474,274.4673,0,U,47762,999,18608,-.61789E-4,-.1201E-4,0
STARLINK-2181,2021-017AT,2024-07-11T00:11:00.299040,15.06385896,.0001543,53.0545,60.1171,79.8691,280.2471,0,U,47763,999,18621,.35571E-4,.248E-5,0
STARLINK-2182,2021-017AU,2024-07-10T23:27:12.812832,15.06389327,.0001257,53.0532,70.2529,103.3967,256.7162,0,U,47764,999,18612,.12155E-4,-.1E-5,0
STARLINK-2184,2021-017AW,2024-07-10T22:16:51.333024,15.06400073,.0001172,53.0538,70.4660,111.1854,248.9260,0,U,47766,999,18605,.50858E-3,.7302E-4,0
STARLINK-2185,2021-017AX,2024-07-11T00:30:15.149088,15.06394003,.0001551,53.0547,55.0592,95.2305,264.8861,0,U,47767,999,18634,-.29482E-4,-.721E-5,0
STARLINK-2189,2021-017AY,2024-07-10T22:18:17.086752,15.06393885,.0001281,53.0533,70.8641,109.0993,251.0135,0,U,47768,999,18608,.68977E-4,.746E-5,0
