STARLINK-2142           
1 47732U 21017L   24193.56148634  .00006261  00000+0  43885-3 0  9995
2 47732  53.0571 327.8757 0001446  83.7568 276.3586 15.06401397187567
STARLINK-2143           
1 47733U 21017M   24192.91319005 -.00001502  00000+0 -82007-4 0  9991
2 47733  53.0535  65.5453 0000804  76.3001 283.8078 15.06391497186189
STARLINK-2144           
1 47734U 21017N   24192.99888820 -.00000947  00000+0 -44682-4 0  9995
2 47734  53.0537  55.1562 0001379  86.6121 273.5025 15.06393150186303
STARLINK-2146           
1 47735U 21017P   24193.54579930  .00010553  00000+0  72611-3 0  9991
2 47735  53.0558 337.8686 0001270  81.4325 278.6808 15.06409409187416
STARLINK-2147           
1 47736U 21017Q   24193.56376389  .00001702  00000+0  13312-3 0  9996
2 47736  53.0564  42.6169 0001618  74.3911 285.7257 15.06397413186562
STARLINK-2148           
1 47737U 21017R   24193.58334491  .00357474  00000+0  11727-2 0  9994
2 47737  53.0408 142.3442 0005428  97.4703 151.7622 15.89096271  5972
STARLINK-2150           
1 47739U 21017T   24193.62595786  .00011103  00000+0  76294-3 0  9994
2 47739  53.0541  67.3399 0001465  91.8034 268.3123 15.06407320186220
STARLINK-2152           
1 47740U 21017U   24193.00994509 -.00000958  00000+0 -45453-4 0  9996
2 47740  53.0536  55.1071 0000849  75.3458 284.7625 15.06393506186331
STARLINK-2156           
1 47742U 21017W   24193.56744409  .00006406  00000+0  44856-3 0  9998
2 47742  53.0553  42.6053 0001278  95.7145 264.3990 15.06400032186566
STARLINK-2157           
1 47743U 21017X   24192.99612421 -.00001969  00000+0 -11329-3 0  9993
2 47743  53.0565  45.1628 0002062 112.1553 247.9655 15.06394935186452
STARLINK-2159           
1 47745U 21017Z   24193.59970146  .00003031  00000+0  22234-3 0  9990
2 47745  53.0539  52.4584 0001393  83.1929 276.9218 15.06395291186371
STARLINK-2160           
1 47746U 21017AA  24193.59232410  .00007337  00000+0  51095-3 0  9996
2 47746  53.0545  52.4918 0001417  81.6600 278.4549 15.06400456186369
STARLINK-2161           
1 47747U 21017AB  24192.99244104  .00002656  00000+0  19721-3 0  9992
2 47747  53.0545  45.1842 0001383  92.2396 267.8751 15.06383798186453
STARLINK-2162           
1 47748U 21017AC  24192.98506225  .00014747  00000+0  10062-2 0  9999
2 47748  53.0540  45.2187 0001554  80.0972 280.0192 15.06422540186429
STARLINK-2163           
1 47749U 21017AD  24193.59693063 -.00001156  00000+0 -58740-4 0  9994
2 47749  53.0534  42.4698 0001541  89.6615 270.4551 15.06395116186514
STARLINK-2164           
1 47750U 21017AE  24193.57481306  .00012590  00000+0  86272-3 0  9991
2 47750  53.0541  42.5700 0001517 106.3705 253.7451 15.06393883186511
STARLINK-2168           
1 47751U 21017AF  24193.58334491  .00387761  00000+0  19408-2 0  9996
2 47751  53.0528   1.1447 0000735  51.8768 282.8351 15.80187937  6022
STARLINK-2169           
1 47752U 21017AG  24193.57251584  .00007372  00000+0  51323-3 0  9997
2 47752  53.0562  47.5824 0001482  98.0291 262.0866 15.06405924186496
STARLINK-2170           
1 47753U 21017AH  24193.01732150 -.00001210  00000+0 -62347-4 0  9996
2 47753  53.0552  55.0733 0001236 103.7534 256.3593 15.06390769186336
STARLINK-2171           
1 47754U 21017AJ  24193.45225747  .00003118  00000+0  22812-3 0  9993
2 47754  53.0541  53.1219 0001341  84.2531 275.8611 15.06394898186367
STARLINK-2174           
1 47756U 21017AL  24193.58126786  .00011973  00000+0  82133-3 0  9992
2 47756  53.0543  52.5410 0001526  75.1203 284.9955 15.06398026186423
STARLINK-2175           
1 47757U 21017AM  24192.90305633 -.00000795  00000+0 -34453-4 0  9993
2 47757  53.0553  55.5827 0001481 118.3868 241.7270 15.06394488185649
STARLINK-2178           
1 47760U 21017AQ  24192.93530978  .00000288  00000+0  38219-4 0  9991
2 47760  53.0544  65.4473 0001502  91.9279 268.1882 15.06398640186160
STARLINK-2179           
1 47761U 21017AR  24193.03206220 -.00001588  00000+0 -87719-4 0  9999
2 47761  53.0545  55.0097 0001745  84.4311 275.6877 15.06393318186290
STARLINK-2180           
1 47762U 21017AS  24192.92563183 -.00001201  00000+0 -61789-4 0  9992
2 47762  53.0542  70.4980 0001388  85.6474 274.4673 15.06392909186089
STARLINK-2181           
1 47763U 21017AT  24193.00764235  .00000248  00000+0  35571-4 0  9992
2 47763  53.0545  60.1171 0001543  79.8691 280.2471 15.06385896186213
STARLINK-2182           
1 47764U 21017AU  24192.97723163 -.00000100  00000+0  12155-4 0  9994
2 47764  53.0532  70.2529 0001257 103.3967 256.7162 15.06389327186128
STARLINK-2184           
1 47766U 21017AW  24192.92837191  .00007302  00000+0  50858-3 0  9999
2 47766  53.0538  70.4660 0001172 111.1854 248.9260 15.06400073186058
STARLINK-2185           
1 47767U 21017AX  24193.02100867 -.00000721  00000+0 -29482-4 0  9995
2 47767  53.0547  55.0592 0001551  95.2305 264.8861 15.06394003186347
STARLINK-2189           
1 47768U 21017AY  24192.92936443  .00000746  00000+0  68977-4 0  9998
2 47768  53.0533  70.8641 0001281 109.0993 251.0135 15.06393885186080
